ADRAS-J                 
1 58992U 24034A   24209.15573834  .00004554  00000+0  42099-3 0  9993
2 58992  98.2153 184.0060 0041973 277.4911  82.1540 14.94459722 23830
